{"type": "FeatureCollection", "features": [ {"type": "Feature", "properties": {"norad_id": 34819, "name": "COSMOS 2251 DEB", "group": "cosmos-2251-debris", "lat": -72.31510620381027, "lon": 35.89267160336975, "alt_km": 676.980239606195, "timestamp": "2025-12-07T22:37:43.477286+00:00", "meta": {"OBJECT_NAME": "COSMOS 2251 DEB", "OBJECT_ID": "1993-036ABJ", "EPOCH": "2025-12-07T05:51:29.892672", "MEAN_MOTION": 14.63835794, "ECCENTRICITY": 0.0015884, "INCLINATION": 74.0171, "RA_OF_ASC_NODE": 153.2222, "ARG_OF_PERICENTER": 246.9129, "MEAN_ANOMALY": 294.4881, "EPHEMERIS_TYPE": 0, "CLASSIFICATION_TYPE": "U", "NORAD_CAT_ID": 34819, "ELEMENT_SET_NO": 999, "REV_AT_EPOCH": 88148, "BSTAR": 0.0023227727, "MEAN_MOTION_DOT": 0.00012143, "MEAN_MOTION_DDOT": 0}, "tle": {"line1": "1 34819U 93036ABJ 25341.24409598  .00012143  00000+0  23228-2 0  9991", "line2": "2 34819  74.0171 153.2222 0015884 246.9129 294.4881 14.63835794881488"}}, "geometry": {"type": "Point", "coordinates": [35.89267160336975, -72.31510620381027]}}, {"type": "Feature", "properties": {"norad_id": 34823, "name": "COSMOS 2251 DEB", "group": "cosmos-2251-debris", "lat": 69.44221980027795, "lon": -118.37005869200182, "alt_km": 709.0699216946832, "timestamp": "2025-12-07T22:37:43.477297+00:00", "meta": {"OBJECT_NAME": "COSMOS 2251 DEB", "OBJECT_ID": "1993-036ABN", "EPOCH": "2025-12-07T02:20:31.613568", "MEAN_MOTION": 14.5486148, "ECCENTRICITY": 0.01552204, "INCLINATION": 74.0411, "RA_OF_ASC_NODE": 112.9601, "ARG_OF_PERICENTER": 199.1213, "MEAN_ANOMALY": 160.4087, "EPHEMERIS_TYPE": 0, "CLASSIFICATION_TYPE": "U", "NORAD_CAT_ID": 34823, "ELEMENT_SET_NO": 999, "REV_AT_EPOCH": 88299, "BSTAR": 0.0014370678, "MEAN_MOTION_DOT": 7.229e-05, "MEAN_MOTION_DDOT": 0}, "tle": {"line1": "1 34823U 93036ABN 25341.09758812  .00007229  00000+0  14371-2 0  9993", "line2": "2 34823  74.0411 112.9601 0155220 199.1213 160.4087 14.54861480882993"}}, "geometry": {"type": "Point", "coordinates": [-118.37005869200182, 69.44221980027795]}}, {"type": "Feature", "properties": {"norad_id": 34845, "name": "COSMOS 2251 DEB", "group": "cosmos-2251-debris", "lat": -46.50729360853611, "lon": -5.12079512281963, "alt_km": 745.6143421827883, "timestamp": "2025-12-07T22:37:43.477307+00:00", "meta": {"OBJECT_NAME": "COSMOS 2251 DEB", "OBJECT_ID": "1993-036ABP", "EPOCH": "2025-12-06T20:39:44.498880", "MEAN_MOTION": 14.45840462, "ECCENTRICITY": 0.00221763, "INCLINATION": 74.0235, "RA_OF_ASC_NODE": 159.3219, "ARG_OF_PERICENTER": 321.0839, "MEAN_ANOMALY": 38.8721, "EPHEMERIS_TYPE": 0, "CLASSIFICATION_TYPE": "U", "NORAD_CAT_ID": 34845, "ELEMENT_SET_NO": 999, "REV_AT_EPOCH": 87381, "BSTAR": 0.00047598177, "MEAN_MOTION_DOT": 1.668e-05, "MEAN_MOTION_DDOT": 0}, "tle": {"line1": "1 34845U 93036ABP 25340.86093170  .00001668  00000+0  47598-3 0  9999", "line2": "2 34845  74.0235 159.3219 0022176 321.0839  38.8721 14.45840462873815"}}, "geometry": {"type": "Point", "coordinates": [-5.12079512281963, -46.50729360853611]}}, {"type": "Feature", "properties": {"norad_id": 34846, "name": "COSMOS 2251 DEB", "group": "cosmos-2251-debris", "lat": 33.07901292311476, "lon": 79.99628756288999, "alt_km": 750.5809934993176, "timestamp": "2025-12-07T22:37:43.477318+00:00", "meta": {"OBJECT_NAME": "COSMOS 2251 DEB", "OBJECT_ID": "1993-036ABQ", "EPOCH": "2025-12-07T02:03:01.007712", "MEAN_MOTION": 14.47157823, "ECCENTRICITY": 0.00259685, "INCLINATION": 74.0314, "RA_OF_ASC_NODE": 272.3482, "ARG_OF_PERICENTER": 339.4565, "MEAN_ANOMALY": 20.5547, "EPHEMERIS_TYPE": 0, "CLASSIFICATION_TYPE": "U", "NORAD_CAT_ID": 34846, "ELEMENT_SET_NO": 999, "REV_AT_EPOCH": 87322, "BSTAR": 0.0015509955, "MEAN_MOTION_DOT": 5.661e-05, "MEAN_MOTION_DDOT": 0}, "tle": {"line1": "1 34846U 93036ABQ 25341.08542833  .00005661  00000+0  15510-2 0  9995", "line2": "2 34846  74.0314 272.3482 0025968 339.4565  20.5547 14.47157823873226"}}, "geometry": {"type": "Point", "coordinates": [79.99628756288999, 33.07901292311476]}}, {"type": "Feature", "properties": {"norad_id": 34852, "name": "COSMOS 2251 DEB", "group": "cosmos-2251-debris", "lat": 25.927064810839084, "lon": -80.2044383866761, "alt_km": 756.0172352541058, "timestamp": "2025-12-07T22:37:43.477328+00:00", "meta": {"OBJECT_NAME": "COSMOS 2251 DEB", "OBJECT_ID": "1993-036ABW", "EPOCH": "2025-12-06T13:05:14.276832", "MEAN_MOTION": 14.36997377, "ECCENTRICITY": 0.00159109, "INCLINATION": 74.0328, "RA_OF_ASC_NODE": 274.3637, "ARG_OF_PERICENTER": 19.1215, "MEAN_ANOMALY": 341.0532, "EPHEMERIS_TYPE": 0, "CLASSIFICATION_TYPE": "U", "NORAD_CAT_ID": 34852, "ELEMENT_SET_NO": 999, "REV_AT_EPOCH": 87445, "BSTAR": 0.00023532028, "MEAN_MOTION_DOT": 6.72e-06, "MEAN_MOTION_DDOT": 0}, "tle": {"line1": "1 34852U 93036ABW 25340.54530413  .00000672  00000+0  23532-3 0  9994", "line2": "2 34852  74.0328 274.3637 0015910  19.1215 341.0532 14.36997377874457"}}, "geometry": {"type": "Point", "coordinates": [-80.2044383866761, 25.927064810839084]}}, {"type": "Feature", "properties": {"norad_id": 34854, "name": "COSMOS 2251 DEB", "group": "cosmos-2251-debris", "lat": -30.380812341672453, "lon": 158.31948075600744, "alt_km": 614.4855728933453, "timestamp": "2025-12-07T22:37:43.477339+00:00", "meta": {"OBJECT_NAME": "COSMOS 2251 DEB", "OBJECT_ID": "1993-036ABY", "EPOCH": "2025-12-06T06:07:08.868864", "MEAN_MOTION": 14.76535535, "ECCENTRICITY": 0.00662211, "INCLINATION": 74.0279, "RA_OF_ASC_NODE": 171.2927, "ARG_OF_PERICENTER": 284.2541, "MEAN_ANOMALY": 75.1285, "EPHEMERIS_TYPE": 0, "CLASSIFICATION_TYPE": "U", "NORAD_CAT_ID": 34854, "ELEMENT_SET_NO": 999, "REV_AT_EPOCH": 71786, "BSTAR": 0.0010983798, "MEAN_MOTION_DOT": 7.913e-05, "MEAN_MOTION_DDOT": 0}, "tle": {"line1": "1 34854U 93036ABY 25340.25496376  .00007913  00000+0  10984-2 0  9994", "line2": "2 34854  74.0279 171.2927 0066221 284.2541  75.1285 14.76535535717868"}}, "geometry": {"type": "Point", "coordinates": [158.31948075600744, -30.380812341672453]}}, {"type": "Feature", "properties": {"norad_id": 34856, "name": "COSMOS 2251 DEB", "group": "cosmos-2251-debris", "lat": -69.34400661195473, "lon": -35.71839255209303, "alt_km": 534.7387286910262, "timestamp": "2025-12-07T22:37:43.477349+00:00", "meta": {"OBJECT_NAME": "COSMOS 2251 DEB", "OBJECT_ID": "1993-036ACA", "EPOCH": "2025-12-07T07:16:15.266208", "MEAN_MOTION": 15.05609422, "ECCENTRICITY": 0.00340835, "INCLINATION": 73.9995, "RA_OF_ASC_NODE": 96.0289, "ARG_OF_PERICENTER": 234.6289, "MEAN_ANOMALY": 154.9429, "EPHEMERIS_TYPE": 0, "CLASSIFICATION_TYPE": "U", "NORAD_CAT_ID": 34856, "ELEMENT_SET_NO": 999, "REV_AT_EPOCH": 89030, "BSTAR": 0.0029359125, "MEAN_MOTION_DOT": 0.00043129, "MEAN_MOTION_DDOT": 0}, "tle": {"line1": "1 34856U 93036ACA 25341.30295447  .00043129  00000+0  29359-2 0  9994", "line2": "2 34856  73.9995  96.0289 0034083 234.6289 154.9429 15.05609422890304"}}, "geometry": {"type": "Point", "coordinates": [-35.71839255209303, -69.34400661195473]}}, {"type": "Feature", "properties": {"norad_id": 34857, "name": "COSMOS 2251 DEB", "group": "cosmos-2251-debris", "lat": -1.9578737868064477, "lon": 115.41704006699902, "alt_km": 720.7688661790744, "timestamp": "2025-12-07T22:37:43.477359+00:00", "meta": {"OBJECT_NAME": "COSMOS 2251 DEB", "OBJECT_ID": "1993-036ACB", "EPOCH": "2025-12-07T04:49:47.801280", "MEAN_MOTION": 14.58798069, "ECCENTRICITY": 0.00660664, "INCLINATION": 74.0154, "RA_OF_ASC_NODE": 117.3922, "ARG_OF_PERICENTER": 242.8244, "MEAN_ANOMALY": 181.4295, "EPHEMERIS_TYPE": 0, "CLASSIFICATION_TYPE": "U", "NORAD_CAT_ID": 34857, "ELEMENT_SET_NO": 999, "REV_AT_EPOCH": 87820, "BSTAR": 0.0019296222, "MEAN_MOTION_DOT": 9.279e-05, "MEAN_MOTION_DDOT": 0}, "tle": {"line1": "1 34857U 93036ACB 25341.20124770  .00009279  00000+0  19296-2 0  9991", "line2": "2 34857  74.0154 117.3922 0066066 242.8244 181.4295 14.58798069878207"}}, "geometry": {"type": "Point", "coordinates": [115.41704006699902, -1.9578737868064477]}}, {"type": "Feature", "properties": {"norad_id": 34859, "name": "COSMOS 2251 DEB", "group": "cosmos-2251-debris", "lat": 69.09685842173293, "lon": 38.200379025333504, "alt_km": 519.6293735608415, "timestamp": "2025-12-07T22:37:43.477370+00:00", "meta": {"OBJECT_NAME": "COSMOS 2251 DEB", "OBJECT_ID": "1993-036ACD", "EPOCH": "2025-12-06T00:24:12.426336", "MEAN_MOTION": 15.1304626, "ECCENTRICITY": 0.00037121, "INCLINATION": 74.031, "RA_OF_ASC_NODE": 353.6246, "ARG_OF_PERICENTER": 322.7651, "MEAN_ANOMALY": 65.2491, "EPHEMERIS_TYPE": 0, "CLASSIFICATION_TYPE": "U", "NORAD_CAT_ID": 34859, "ELEMENT_SET_NO": 999, "REV_AT_EPOCH": 88257, "BSTAR": 0.0071124409, "MEAN_MOTION_DOT": 0.00128013, "MEAN_MOTION_DDOT": 0}, "tle": {"line1": "1 34859U 93036ACD 25340.01681049  .00128013  00000+0  71124-2 0  9994", "line2": "2 34859  74.0310 353.6246 0003712 322.7651  65.2491 15.13046260882579"}}, "geometry": {"type": "Point", "coordinates": [38.200379025333504, 69.09685842173293]}}, {"type": "Feature", "properties": {"norad_id": 34861, "name": "COSMOS 2251 DEB", "group": "cosmos-2251-debris", "lat": -6.126078419832136, "lon": -117.58946402434387, "alt_km": 565.9741124979864, "timestamp": "2025-12-07T22:37:43.477381+00:00", "meta": {"OBJECT_NAME": "COSMOS 2251 DEB", "OBJECT_ID": "1993-036ACF", "EPOCH": "2025-12-06T05:58:45.195744", "MEAN_MOTION": 15.01955831, "ECCENTRICITY": 0.00063632, "INCLINATION": 74.0187, "RA_OF_ASC_NODE": 64.1032, "ARG_OF_PERICENTER": 69.169, "MEAN_ANOMALY": 322.2406, "EPHEMERIS_TYPE": 0, "CLASSIFICATION_TYPE": "U", "NORAD_CAT_ID": 34861, "ELEMENT_SET_NO": 999, "REV_AT_EPOCH": 87995, "BSTAR": 0.0045668767, "MEAN_MOTION_DOT": 0.00060299, "MEAN_MOTION_DDOT": 0}, "tle": {"line1": "1 34861U 93036ACF 25340.24913421  .00060299  00000+0  45669-2 0  9990", "line2": "2 34861  74.0187  64.1032 0006363  69.1690 322.2406 15.01955831879951"}}, "geometry": {"type": "Point", "coordinates": [-117.58946402434387, -6.126078419832136]}}]}